{"type": "FeatureCollection", "features": [ {"type": "Feature", "properties": {"norad_id": 36711, "name": "FENGYUN 1C DEB", "group": "fengyun-1c-debris", "lat": -2.0293091601146798, "lon": -164.2943953987398, "alt_km": 682.1125023613913, "timestamp": "2025-12-20T16:47:36.575587+00:00", "meta": {"OBJECT_NAME": "FENGYUN 1C DEB", "OBJECT_ID": "1999-025EAH", "EPOCH": "2025-12-15T19:25:24.600864", "MEAN_MOTION": 14.42474443, "ECCENTRICITY": 0.01001739, "INCLINATION": 100.8044, "RA_OF_ASC_NODE": 9.912, "ARG_OF_PERICENTER": 199.8566, "MEAN_ANOMALY": 159.8704, "EPHEMERIS_TYPE": 0, "CLASSIFICATION_TYPE": "U", "NORAD_CAT_ID": 36711, "ELEMENT_SET_NO": 999, "REV_AT_EPOCH": 64355, "BSTAR": 0.0014307525, "MEAN_MOTION_DOT": 4.969e-05, "MEAN_MOTION_DDOT": 0}, "tle": {"line1": "1 36711U 99025EAH 25349.80931251  .00004969  00000+0  14308-2 0  9990", "line2": "2 36711 100.8044   9.9120 0100173 199.8566 159.8704 14.42474443643558"}}, "geometry": {"type": "Point", "coordinates": [-164.2943953987398, -2.0293091601146798]}}, {"type": "Feature", "properties": {"norad_id": 36716, "name": "FENGYUN 1C DEB", "group": "fengyun-1c-debris", "lat": 65.22915294191688, "lon": 114.29560905203785, "alt_km": 934.288851694816, "timestamp": "2025-12-20T16:47:36.575598+00:00", "meta": {"OBJECT_NAME": "FENGYUN 1C DEB", "OBJECT_ID": "1999-025EAN", "EPOCH": "2025-12-18T00:14:45.593952", "MEAN_MOTION": 13.8841712, "ECCENTRICITY": 0.01481792, "INCLINATION": 99.2289, "RA_OF_ASC_NODE": 271.0046, "ARG_OF_PERICENTER": 214.5801, "MEAN_ANOMALY": 144.565, "EPHEMERIS_TYPE": 0, "CLASSIFICATION_TYPE": "U", "NORAD_CAT_ID": 36716, "ELEMENT_SET_NO": 999, "REV_AT_EPOCH": 63004, "BSTAR": 0.00018188182, "MEAN_MOTION_DOT": 1.93e-06, "MEAN_MOTION_DDOT": 0}, "tle": {"line1": "1 36716U 99025EAN 25352.01024993  .00000193  00000+0  18188-3 0  9994", "line2": "2 36716  99.2289 271.0046 0148179 214.5801 144.5650 13.88417120630048"}}, "geometry": {"type": "Point", "coordinates": [114.29560905203785, 65.22915294191688]}}, {"type": "Feature", "properties": {"norad_id": 36724, "name": "FENGYUN 1C DEB", "group": "fengyun-1c-debris", "lat": -40.110357757078646, "lon": 35.14236757120465, "alt_km": 873.8139107613952, "timestamp": "2025-12-20T16:47:36.575608+00:00", "meta": {"OBJECT_NAME": "FENGYUN 1C DEB", "OBJECT_ID": "1999-025EAW", "EPOCH": "2025-12-18T01:06:38.664576", "MEAN_MOTION": 14.25328701, "ECCENTRICITY": 0.01037205, "INCLINATION": 99.4675, "RA_OF_ASC_NODE": 24.1999, "ARG_OF_PERICENTER": 182.8224, "MEAN_ANOMALY": 207.9026, "EPHEMERIS_TYPE": 0, "CLASSIFICATION_TYPE": "U", "NORAD_CAT_ID": 36724, "ELEMENT_SET_NO": 999, "REV_AT_EPOCH": 57548, "BSTAR": 0.0014303066, "MEAN_MOTION_DOT": 3.515e-05, "MEAN_MOTION_DDOT": 0}, "tle": {"line1": "1 36724U 99025EAW 25352.04628084  .00003515  00000+0  14303-2 0  9992", "line2": "2 36724  99.4675  24.1999 0103720 182.8224 207.9026 14.25328701575486"}}, "geometry": {"type": "Point", "coordinates": [35.14236757120465, -40.110357757078646]}}, {"type": "Feature", "properties": {"norad_id": 36729, "name": "FENGYUN 1C DEB", "group": "fengyun-1c-debris", "lat": -55.38232088936666, "lon": -10.920410831832223, "alt_km": 854.0912454051768, "timestamp": "2025-12-20T16:47:36.575618+00:00", "meta": {"OBJECT_NAME": "FENGYUN 1C DEB", "OBJECT_ID": "1999-025EBB", "EPOCH": "2025-12-16T04:05:17.827872", "MEAN_MOTION": 14.10320494, "ECCENTRICITY": 0.00453471, "INCLINATION": 98.708, "RA_OF_ASC_NODE": 331.8661, "ARG_OF_PERICENTER": 246.1932, "MEAN_ANOMALY": 113.4481, "EPHEMERIS_TYPE": 0, "CLASSIFICATION_TYPE": "U", "NORAD_CAT_ID": 36729, "ELEMENT_SET_NO": 999, "REV_AT_EPOCH": 87300, "BSTAR": 0.00030652739, "MEAN_MOTION_DOT": 5.06e-06, "MEAN_MOTION_DDOT": 0}, "tle": {"line1": "1 36729U 99025EBB 25350.17034523  .00000506  00000+0  30653-3 0  9992", "line2": "2 36729  98.7080 331.8661 0045347 246.1932 113.4481 14.10320494873007"}}, "geometry": {"type": "Point", "coordinates": [-10.920410831832223, -55.38232088936666]}}, {"type": "Feature", "properties": {"norad_id": 36734, "name": "FENGYUN 1C DEB", "group": "fengyun-1c-debris", "lat": 30.712095423626888, "lon": -132.7059380486012, "alt_km": 786.1215445974794, "timestamp": "2025-12-20T16:47:36.575628+00:00", "meta": {"OBJECT_NAME": "FENGYUN 1C DEB", "OBJECT_ID": "1999-025EBG", "EPOCH": "2025-12-18T01:47:05.053056", "MEAN_MOTION": 14.25897297, "ECCENTRICITY": 0.00364903, "INCLINATION": 99.0559, "RA_OF_ASC_NODE": 39.1461, "ARG_OF_PERICENTER": 204.3184, "MEAN_ANOMALY": 155.6274, "EPHEMERIS_TYPE": 0, "CLASSIFICATION_TYPE": "U", "NORAD_CAT_ID": 36734, "ELEMENT_SET_NO": 999, "REV_AT_EPOCH": 82810, "BSTAR": 0.0013415374, "MEAN_MOTION_DOT": 3.171e-05, "MEAN_MOTION_DDOT": 0}, "tle": {"line1": "1 36734U 99025EBG 25352.07436404  .00003171  00000+0  13415-2 0  9990", "line2": "2 36734  99.0559  39.1461 0036490 204.3184 155.6274 14.25897297828103"}}, "geometry": {"type": "Point", "coordinates": [-132.7059380486012, 30.712095423626888]}}, {"type": "Feature", "properties": {"norad_id": 36736, "name": "FENGYUN 1C DEB", "group": "fengyun-1c-debris", "lat": -56.28840079455333, "lon": -125.24080212760005, "alt_km": 835.1879476526119, "timestamp": "2025-12-20T16:47:36.575638+00:00", "meta": {"OBJECT_NAME": "FENGYUN 1C DEB", "OBJECT_ID": "1999-025EBJ", "EPOCH": "2025-12-19T22:50:38.531904", "MEAN_MOTION": 14.25518256, "ECCENTRICITY": 0.0060743, "INCLINATION": 98.8062, "RA_OF_ASC_NODE": 67.4431, "ARG_OF_PERICENTER": 119.7313, "MEAN_ANOMALY": 240.9929, "EPHEMERIS_TYPE": 0, "CLASSIFICATION_TYPE": "U", "NORAD_CAT_ID": 36736, "ELEMENT_SET_NO": 999, "REV_AT_EPOCH": 88718, "BSTAR": 0.0010514, "MEAN_MOTION_DOT": 2.49e-05, "MEAN_MOTION_DDOT": 0}, "tle": {"line1": "1 36736U 99025EBJ 25353.95183486  .00002490  00000+0  10514-2 0  9999", "line2": "2 36736  98.8062  67.4431 0060743 119.7313 240.9929 14.25518256887186"}}, "geometry": {"type": "Point", "coordinates": [-125.24080212760005, -56.28840079455333]}}, {"type": "Feature", "properties": {"norad_id": 36743, "name": "FENGYUN 1C DEB", "group": "fengyun-1c-debris", "lat": 10.414369600864273, "lon": 41.30517036839432, "alt_km": 764.5190135315015, "timestamp": "2025-12-20T16:47:36.575647+00:00", "meta": {"OBJECT_NAME": "FENGYUN 1C DEB", "OBJECT_ID": "1999-025EBR", "EPOCH": "2025-12-15T20:48:16.336800", "MEAN_MOTION": 14.29116099, "ECCENTRICITY": 0.0047177, "INCLINATION": 98.6557, "RA_OF_ASC_NODE": 38.1117, "ARG_OF_PERICENTER": 3.5743, "MEAN_ANOMALY": 356.5766, "EPHEMERIS_TYPE": 0, "CLASSIFICATION_TYPE": "U", "NORAD_CAT_ID": 36743, "ELEMENT_SET_NO": 999, "REV_AT_EPOCH": 60782, "BSTAR": 0.00095050245, "MEAN_MOTION_DOT": 2.395e-05, "MEAN_MOTION_DDOT": 0}, "tle": {"line1": "1 36743U 99025EBR 25349.86685575  .00002395  00000+0  95050-3 0  9991", "line2": "2 36743  98.6557  38.1117 0047177   3.5743 356.5766 14.29116099607827"}}, "geometry": {"type": "Point", "coordinates": [41.30517036839432, 10.414369600864273]}}, {"type": "Feature", "properties": {"norad_id": 36986, "name": "FENGYUN 1C DEB", "group": "fengyun-1c-debris", "lat": -79.77399493109867, "lon": 124.13998143074093, "alt_km": 814.4211153224633, "timestamp": "2025-12-20T16:47:36.575657+00:00", "meta": {"OBJECT_NAME": "FENGYUN 1C DEB", "OBJECT_ID": "1999-025EBS", "EPOCH": "2025-12-15T03:05:39.285888", "MEAN_MOTION": 14.14607907, "ECCENTRICITY": 0.00875693, "INCLINATION": 99.1452, "RA_OF_ASC_NODE": 55.1898, "ARG_OF_PERICENTER": 235.0252, "MEAN_ANOMALY": 124.2675, "EPHEMERIS_TYPE": 0, "CLASSIFICATION_TYPE": "U", "NORAD_CAT_ID": 36986, "ELEMENT_SET_NO": 999, "REV_AT_EPOCH": 81778, "BSTAR": 0.0016913625, "MEAN_MOTION_DOT": 3.326e-05, "MEAN_MOTION_DDOT": 0}, "tle": {"line1": "1 36986U 99025EBS 25349.12892692  .00003326  00000+0  16914-2 0  9995", "line2": "2 36986  99.1452  55.1898 0087569 235.0252 124.2675 14.14607907817781"}}, "geometry": {"type": "Point", "coordinates": [124.13998143074093, -79.77399493109867]}}, {"type": "Feature", "properties": {"norad_id": 36987, "name": "FENGYUN 1C DEB", "group": "fengyun-1c-debris", "lat": 12.83642821355121, "lon": -126.39789156743745, "alt_km": 856.6363186462722, "timestamp": "2025-12-20T16:47:36.575667+00:00", "meta": {"OBJECT_NAME": "FENGYUN 1C DEB", "OBJECT_ID": "1999-025EBT", "EPOCH": "2025-12-19T22:53:32.054208", "MEAN_MOTION": 13.45891786, "ECCENTRICITY": 0.0320403, "INCLINATION": 100.8195, "RA_OF_ASC_NODE": 235.2948, "ARG_OF_PERICENTER": 29.8332, "MEAN_ANOMALY": 332.0644, "EPHEMERIS_TYPE": 0, "CLASSIFICATION_TYPE": "U", "NORAD_CAT_ID": 36987, "ELEMENT_SET_NO": 999, "REV_AT_EPOCH": 60974, "BSTAR": 0.0011449, "MEAN_MOTION_DOT": 8.81e-06, "MEAN_MOTION_DDOT": 0}, "tle": {"line1": "1 36987U 99025EBT 25353.95384322  .00000881  00000+0  11449-2 0  9999", "line2": "2 36987 100.8195 235.2948 0320403  29.8332 332.0644 13.45891786609741"}}, "geometry": {"type": "Point", "coordinates": [-126.39789156743745, 12.83642821355121]}}, {"type": "Feature", "properties": {"norad_id": 36990, "name": "FENGYUN 1C DEB", "group": "fengyun-1c-debris", "lat": 17.711561862731013, "lon": 122.71433595727866, "alt_km": 1251.5422620162226, "timestamp": "2025-12-20T16:47:36.575677+00:00", "meta": {"OBJECT_NAME": "FENGYUN 1C DEB", "OBJECT_ID": "1999-025EBW", "EPOCH": "2025-12-05T02:36:38.289600", "MEAN_MOTION": 13.56914719, "ECCENTRICITY": 0.0292772, "INCLINATION": 96.5839, "RA_OF_ASC_NODE": 290.134, "ARG_OF_PERICENTER": 44.0413, "MEAN_ANOMALY": 318.3658, "EPHEMERIS_TYPE": 0, "CLASSIFICATION_TYPE": "U", "NORAD_CAT_ID": 36990, "ELEMENT_SET_NO": 999, "REV_AT_EPOCH": 82784, "BSTAR": 0.0013157618, "MEAN_MOTION_DOT": 1.212e-05, "MEAN_MOTION_DDOT": 0}, "tle": {"line1": "1 36990U 99025EBW 25339.10877650  .00001212  00000+0  13158-2 0  9993", "line2": "2 36990  96.5839 290.1340 0292772  44.0413 318.3658 13.56914719827842"}}, "geometry": {"type": "Point", "coordinates": [122.71433595727866, 17.711561862731013]}}]}